IRIDIUM 159             
1 43578U 18061K   25228.80618672  .00000075  00000+0  19752-4 0  9999
2 43578  86.4022 183.8909 0002414  81.0788 279.0681 14.34217566369754
IRIDIUM 180             
1 43922U 19002A   25228.66614497  .00000106  00000+0  30913-4 0  9990
2 43922  86.3978 120.9273 0002089  82.5638 277.5795 14.34218075345344
IRIDIUM 176             
1 43923U 19002B   25228.45976872  .00000775  00000+0  11903-3 0  9995
2 43923  86.6104 121.0009 0001825  97.3273 262.8151 14.72251080354410
IRIDIUM 168             
1 43924U 19002C   25228.65980260  .00000033  00000+0  48455-5 0  9995
2 43924  86.3981 120.9987 0002144  84.1209 276.0231 14.34217491345324
IRIDIUM 173             
1 43925U 19002D   25228.43781126  .00000179  00000+0  56764-4 0  9994
2 43925  86.3978 120.9928 0001975  84.1296 276.0124 14.34217892345273
IRIDIUM 169             
1 43926U 19002E   25228.73707959  .00000290  00000+0  88138-4 0  9994
2 43926  86.4288 152.4660 0001239 115.2039 244.9287 14.38608000346450
IRIDIUM 172             
1 43927U 19002F   25228.43146738  .00000114  00000+0  33635-4 0  9991
2 43927  86.3978 121.0023 0002159  77.4322 282.7115 14.34217023345284
IRIDIUM 175             
1 43928U 19002G   25228.79466505  .00000596  00000+0  90632-4 0  9992
2 43928  86.1454  69.9079 0002783 105.2708 254.8816 14.72242426354458
